{"type": "FeatureCollection", "features": [ {"type": "Feature", "properties": {"norad_id": 45344, "name": "BEIDOU-3 G2 (C60)", "group": "gnss", "lat": -2.4628974914715074, "lon": -36.22479416235387, "alt_km": 35768.31881205966, "timestamp": "2025-12-11T10:53:16.128376+00:00", "meta": {"OBJECT_NAME": "BEIDOU-3 G2 (C60)", "OBJECT_ID": "2020-017A", "EPOCH": "2025-12-08T17:24:33.367680", "MEAN_MOTION": 1.00273181, "ECCENTRICITY": 0.00043587, "INCLINATION": 2.49, "RA_OF_ASC_NODE": 43.8378, "ARG_OF_PERICENTER": 265.5358, "MEAN_ANOMALY": 109.5017, "EPHEMERIS_TYPE": 0, "CLASSIFICATION_TYPE": "U", "NORAD_CAT_ID": 45344, "ELEMENT_SET_NO": 999, "REV_AT_EPOCH": 2135, "BSTAR": 0, "MEAN_MOTION_DOT": -1.39e-06, "MEAN_MOTION_DDOT": 0}, "tle": {"line1": "1 45344U 20017A   25342.72538620 -.00000139  00000+0  00000+0 0  9991", "line2": "2 45344   2.4900  43.8378 0004358 265.5358 109.5017  1.00273181 21351"}}, "geometry": {"type": "Point", "coordinates": [-36.22479416235387, -2.4628974914715074]}}, {"type": "Feature", "properties": {"norad_id": 45358, "name": "COSMOS 2545 (760)", "group": "gnss", "lat": -44.758679637403674, "lon": -69.27481416617961, "alt_km": 19120.042302734124, "timestamp": "2025-12-11T10:53:16.128388+00:00", "meta": {"OBJECT_NAME": "COSMOS 2545 (760)", "OBJECT_ID": "2020-018A", "EPOCH": "2025-12-10T13:58:04.872576", "MEAN_MOTION": 2.13102273, "ECCENTRICITY": 0.00118432, "INCLINATION": 64.471, "RA_OF_ASC_NODE": 319.0455, "ARG_OF_PERICENTER": 248.8319, "MEAN_ANOMALY": 111.0396, "EPHEMERIS_TYPE": 0, "CLASSIFICATION_TYPE": "U", "NORAD_CAT_ID": 45358, "ELEMENT_SET_NO": 999, "REV_AT_EPOCH": 4464, "BSTAR": 0, "MEAN_MOTION_DOT": -5.2e-07, "MEAN_MOTION_DDOT": 0}, "tle": {"line1": "1 45358U 20018A   25344.58200084 -.00000052  00000+0  00000+0 0  9997", "line2": "2 45358  64.4710 319.0455 0011843 248.8319 111.0396  2.13102273 44648"}}, "geometry": {"type": "Point", "coordinates": [-69.27481416617961, -44.758679637403674]}}, {"type": "Feature", "properties": {"norad_id": 45807, "name": "BEIDOU-3 G3 (C61)", "group": "gnss", "lat": -1.8901353349013703, "lon": -5.7373191103712635, "alt_km": 35761.59964930981, "timestamp": "2025-12-11T10:53:16.128402+00:00", "meta": {"OBJECT_NAME": "BEIDOU-3 G3 (C61)", "OBJECT_ID": "2020-040A", "EPOCH": "2025-12-08T17:33:17.532288", "MEAN_MOTION": 1.00275813, "ECCENTRICITY": 0.00060306, "INCLINATION": 1.9816, "RA_OF_ASC_NODE": 66.5886, "ARG_OF_PERICENTER": 306.262, "MEAN_ANOMALY": 78.7159, "EPHEMERIS_TYPE": 0, "CLASSIFICATION_TYPE": "U", "NORAD_CAT_ID": 45807, "ELEMENT_SET_NO": 999, "REV_AT_EPOCH": 2016, "BSTAR": 0, "MEAN_MOTION_DOT": -3.52e-06, "MEAN_MOTION_DDOT": 0}, "tle": {"line1": "1 45807U 20040A   25342.73145292 -.00000352  00000+0  00000+0 0  9998", "line2": "2 45807   1.9816  66.5886 0006030 306.2620  78.7159  1.00275813 20161"}}, "geometry": {"type": "Point", "coordinates": [-5.7373191103712635, -1.8901353349013703]}}, {"type": "Feature", "properties": {"norad_id": 45854, "name": "GPS BIII-3  (PRN 23)", "group": "gnss", "lat": 36.00209592667822, "lon": -172.43623532157915, "alt_km": 20117.656120523035, "timestamp": "2025-12-11T10:53:16.128416+00:00", "meta": {"OBJECT_NAME": "GPS BIII-3  (PRN 23)", "OBJECT_ID": "2020-041A", "EPOCH": "2025-12-10T06:22:51.669120", "MEAN_MOTION": 2.00561869, "ECCENTRICITY": 0.0060434, "INCLINATION": 56.5455, "RA_OF_ASC_NODE": 36.2815, "ARG_OF_PERICENTER": 203.3429, "MEAN_ANOMALY": 154.8897, "EPHEMERIS_TYPE": 0, "CLASSIFICATION_TYPE": "U", "NORAD_CAT_ID": 45854, "ELEMENT_SET_NO": 999, "REV_AT_EPOCH": 4024, "BSTAR": 0, "MEAN_MOTION_DOT": -9e-07, "MEAN_MOTION_DDOT": 0}, "tle": {"line1": "1 45854U 20041A   25344.26587580 -.00000090  00000+0  00000+0 0  9990", "line2": "2 45854  56.5455  36.2815 0060434 203.3429 154.8897  2.00561869 40242"}}, "geometry": {"type": "Point", "coordinates": [-172.43623532157915, 36.00209592667822]}}, {"type": "Feature", "properties": {"norad_id": 46114, "name": "GALAXY 30 (WAAS/PRN 135)", "group": "gnss", "lat": 0.01889352879246089, "lon": 118.71009673143388, "alt_km": 35793.58720221427, "timestamp": "2025-12-11T10:53:16.128452+00:00", "meta": {"OBJECT_NAME": "GALAXY 30 (WAAS/PRN 135)", "OBJECT_ID": "2020-056C", "EPOCH": "2025-12-11T04:35:38.717376", "MEAN_MOTION": 1.00272338, "ECCENTRICITY": 0.0002306, "INCLINATION": 0.0165, "RA_OF_ASC_NODE": 328.5653, "ARG_OF_PERICENTER": 292.0277, "MEAN_ANOMALY": 123.4727, "EPHEMERIS_TYPE": 0, "CLASSIFICATION_TYPE": "U", "NORAD_CAT_ID": 46114, "ELEMENT_SET_NO": 999, "REV_AT_EPOCH": 1940, "BSTAR": 0, "MEAN_MOTION_DOT": 4.3e-07, "MEAN_MOTION_DDOT": 0}, "tle": {"line1": "1 46114U 20056C   25345.19142034  .00000043  00000+0  00000+0 0  9997", "line2": "2 46114   0.0165 328.5653 0002306 292.0277 123.4727  1.00272338 19408"}}, "geometry": {"type": "Point", "coordinates": [118.71009673143388, 0.01889352879246089]}}, {"type": "Feature", "properties": {"norad_id": 46805, "name": "COSMOS 2547 (705K)", "group": "gnss", "lat": 14.089487653385907, "lon": 11.892394792429972, "alt_km": 19121.935507004793, "timestamp": "2025-12-11T10:53:16.128473+00:00", "meta": {"OBJECT_NAME": "COSMOS 2547 (705K)", "OBJECT_ID": "2020-075A", "EPOCH": "2025-12-08T21:25:56.196192", "MEAN_MOTION": 2.13099854, "ECCENTRICITY": 0.00063847, "INCLINATION": 64.5958, "RA_OF_ASC_NODE": 198.8249, "ARG_OF_PERICENTER": 229.7163, "MEAN_ANOMALY": 130.3027, "EPHEMERIS_TYPE": 0, "CLASSIFICATION_TYPE": "U", "NORAD_CAT_ID": 46805, "ELEMENT_SET_NO": 999, "REV_AT_EPOCH": 3985, "BSTAR": 0, "MEAN_MOTION_DOT": 4.5e-07, "MEAN_MOTION_DDOT": 0}, "tle": {"line1": "1 46805U 20075A   25342.89301153  .00000045  00000+0  00000+0 0  9990", "line2": "2 46805  64.5958 198.8249 0006384 229.7163 130.3027  2.13099854 39856"}}, "geometry": {"type": "Point", "coordinates": [11.892394792429972, 14.089487653385907]}}, {"type": "Feature", "properties": {"norad_id": 46826, "name": "GPS BIII-4  (PRN 14)", "group": "gnss", "lat": 51.05320352306462, "lon": -25.550337971693008, "alt_km": 20196.829551596467, "timestamp": "2025-12-11T10:53:16.128486+00:00", "meta": {"OBJECT_NAME": "GPS BIII-4  (PRN 14)", "OBJECT_ID": "2020-078A", "EPOCH": "2025-12-11T01:02:32.222400", "MEAN_MOTION": 2.00566809, "ECCENTRICITY": 0.0064607, "INCLINATION": 54.0154, "RA_OF_ASC_NODE": 218.4098, "ARG_OF_PERICENTER": 203.3332, "MEAN_ANOMALY": 327.254, "EPHEMERIS_TYPE": 0, "CLASSIFICATION_TYPE": "U", "NORAD_CAT_ID": 46826, "ELEMENT_SET_NO": 999, "REV_AT_EPOCH": 3773, "BSTAR": 0, "MEAN_MOTION_DOT": 8e-08, "MEAN_MOTION_DDOT": 0}, "tle": {"line1": "1 46826U 20078A   25345.04342850  .00000008  00000+0  00000+0 0  9994", "line2": "2 46826  54.0154 218.4098 0064607 203.3332 327.2540  2.00566809 37737"}}, "geometry": {"type": "Point", "coordinates": [-25.550337971693008, 51.05320352306462]}}, {"type": "Feature", "properties": {"norad_id": 48859, "name": "GPS BIII-5  (PRN 11)", "group": "gnss", "lat": -49.397704605148235, "lon": -74.04965395063755, "alt_km": 20154.606022529253, "timestamp": "2025-12-11T10:53:16.128497+00:00", "meta": {"OBJECT_NAME": "GPS BIII-5  (PRN 11)", "OBJECT_ID": "2021-054A", "EPOCH": "2025-12-08T04:14:32.423424", "MEAN_MOTION": 2.00553627, "ECCENTRICITY": 0.0024678, "INCLINATION": 55.2581, "RA_OF_ASC_NODE": 340.1367, "ARG_OF_PERICENTER": 233.3994, "MEAN_ANOMALY": 212.8593, "EPHEMERIS_TYPE": 0, "CLASSIFICATION_TYPE": "U", "NORAD_CAT_ID": 48859, "ELEMENT_SET_NO": 999, "REV_AT_EPOCH": 3292, "BSTAR": 0, "MEAN_MOTION_DOT": -8.6e-07, "MEAN_MOTION_DDOT": 0}, "tle": {"line1": "1 48859U 21054A   25342.17676416 -.00000086  00000+0  00000+0 0  9993", "line2": "2 48859  55.2581 340.1367 0024678 233.3994 212.8593  2.00553627 32922"}}, "geometry": {"type": "Point", "coordinates": [-74.04965395063755, -49.397704605148235]}}, {"type": "Feature", "properties": {"norad_id": 49336, "name": "QZS-1R (QZSS/PRN 196)", "group": "gnss", "lat": -31.411712515428306, "lon": 28.50652325625372, "alt_km": 32966.8031915438, "timestamp": "2025-12-11T10:53:16.128509+00:00", "meta": {"OBJECT_NAME": "QZS-1R (QZSS/PRN 196)", "OBJECT_ID": "2021-096A", "EPOCH": "2025-12-08T14:42:38.556864", "MEAN_MOTION": 1.00258569, "ECCENTRICITY": 0.07543626, "INCLINATION": 37.0693, "RA_OF_ASC_NODE": 82.4203, "ARG_OF_PERICENTER": 271.2519, "MEAN_ANOMALY": 79.6136, "EPHEMERIS_TYPE": 0, "CLASSIFICATION_TYPE": "U", "NORAD_CAT_ID": 49336, "ELEMENT_SET_NO": 999, "REV_AT_EPOCH": 1509, "BSTAR": 0, "MEAN_MOTION_DOT": -2.65e-06, "MEAN_MOTION_DDOT": 0}, "tle": {"line1": "1 49336U 21096A   25342.61294626 -.00000265  00000+0  00000+0 0  9997", "line2": "2 49336  37.0693  82.4203 0754362 271.2519  79.6136  1.00258569 15091"}}, "geometry": {"type": "Point", "coordinates": [28.50652325625372, -31.411712515428306]}}, {"type": "Feature", "properties": {"norad_id": 49809, "name": "GSAT0223 (GALILEO 27)", "group": "gnss", "lat": 54.74661661466554, "lon": 101.0030267994957, "alt_km": 23227.327552236773, "timestamp": "2025-12-11T10:53:16.128525+00:00", "meta": {"OBJECT_NAME": "GSAT0223 (GALILEO 27)", "OBJECT_ID": "2021-116A", "EPOCH": "2025-12-10T02:39:25.687008", "MEAN_MOTION": 1.70475768, "ECCENTRICITY": 0.000463, "INCLINATION": 57.2198, "RA_OF_ASC_NODE": 346.7831, "ARG_OF_PERICENTER": 251.6037, "MEAN_ANOMALY": 107.9349, "EPHEMERIS_TYPE": 0, "CLASSIFICATION_TYPE": "U", "NORAD_CAT_ID": 49809, "ELEMENT_SET_NO": 999, "REV_AT_EPOCH": 2495, "BSTAR": 0, "MEAN_MOTION_DOT": -8.7e-07, "MEAN_MOTION_DDOT": 0}, "tle": {"line1": "1 49809U 21116A   25344.11071397 -.00000087  00000+0  00000+0 0  9992", "line2": "2 49809  57.2198 346.7831 0004630 251.6037 107.9349  1.70475768 24951"}}, "geometry": {"type": "Point", "coordinates": [101.0030267994957, 54.74661661466554]}}]}